COMMENT,ORIGINATOR,NORAD_CAT_ID,OBJECT_NAME,OBJECT_TYPE,CLASSIFICATION_TYPE,INTLDES,EPOCH,EPOCH_MICROSECONDS,MEAN_MOTION,ECCENTRICITY,INCLINATION,RA_OF_ASC_NODE,ARG_OF_PERICENTER,MEAN_ANOMALY,EPHEMERIS_TYPE,ELEMENT_SET_NO,REV_AT_EPOCH,BSTAR,MEAN_MOTION_DOT,MEAN_MOTION_DDOT,FILE,TLE_LINE0,TLE_LINE1,TLE_LINE2,OBJECT_ID,OBJECT_NUMBER,SEMIMAJOR_AXIS,PERIOD,APOGEE,PERIGEE,DECAYED,date
GENERATED VIA SPACETRACK.ORG API,18 SPCS,46300,SPACEBEE-21,PAYLOAD,U,20061AE,2023/1/13 11:08,10144,15.302613,0.0000702,97.4274,88.7556,102.1923,257.9396,0,999,13050,0.002338,0.0006892,0,3743224,0 SPACEBEE-21,1 46300U 20061AE  23013.46415521  .00068920  00000-0  23380-2 0  9992,2 46300  97.4274  88.7556 0000702 102.1923 257.9396 15.30261300130505,2020-061AE,46300,6853.169,94.102,475.515,474.553,1,2023/1/24
GENERATED VIA SPACETRACK.ORG API,18 SPCS,46300,SPACEBEE-21,PAYLOAD,U,20061AE,2023/1/13 11:08,10144,15.302613,0.0000702,97.4274,88.7556,102.1923,257.9396,0,999,13050,0.002338,0.0006892,0,3743417,0 SPACEBEE-21,1 46300U 20061AE  23013.46415521  .00068920  00000-0  23380-2 0  9992,2 46300  97.4274  88.7556 0000702 102.1923 257.9396 15.30261300130505,2020-061AE,46300,6853.169,94.102,475.515,474.553,1,2023/1/25
GENERATED VIA SPACETRACK.ORG API,18 SPCS,46300,SPACEBEE-21,PAYLOAD,U,20061AE,2023/1/14 10:40,706432,15.30421479,0.0000655,97.4271,89.7365,98.0002,262.1313,0,999,13065,0.0030077,0.00089365,0,3744816,0 SPACEBEE-21,1 46300U 20061AE  23014.44496188  .00089365  00000-0  30077-2 0  9996,2 46300  97.4271  89.7365 0000655  98.0002 262.1313 15.30421479130657,2020-061AE,46300,6852.691,94.092,475.005,474.107,1,2023/1/26
GENERATED VIA SPACETRACK.ORG API,18 SPCS,46300,SPACEBEE-21,PAYLOAD,U,20061AE,2023/1/14 10:40,706432,15.30421479,0.0000655,97.4271,89.7365,98.0002,262.1313,0,999,13065,0.0030077,0.00089365,0,3747091,0 SPACEBEE-21,1 46300U 20061AE  23014.44496188  .00089365  00000-0  30077-2 0  9996,2 46300  97.4271  89.7365 0000655  98.0002 262.1313 15.30421479130657,2020-061AE,46300,6852.691,94.092,475.005,474.107,1,2023/1/27
GENERATED VIA SPACETRACK.ORG API,18 SPCS,46300,SPACEBEE-21,PAYLOAD,U,20061AE,2023/1/15 18:03,186944,15.30644224,0.0000425,97.4275,91.0451,50.4805,309.6474,0,999,13085,0.0026519,0.00079221,0,3747841,0 SPACEBEE-21,1 46300U 20061AE  23015.75254846  .00079221  00000-0  26519-2 0  9990,2 46300  97.4275  91.0451 0000425  50.4805 309.6474 15.30644224130853,2020-061AE,46300,6852.026,94.078,474.182,473.6,1,2023/1/28
GENERATED VIA SPACETRACK.ORG API,18 SPCS,46300,SPACEBEE-21,PAYLOAD,U,20061AE,2023/1/15 18:03,186944,15.30644224,0.0000425,97.4275,91.0451,50.4805,309.6474,0,999,13085,0.0026519,0.00079221,0,3748322,0 SPACEBEE-21,1 46300U 20061AE  23015.75254846  .00079221  00000-0  26519-2 0  9990,2 46300  97.4275  91.0451 0000425  50.4805 309.6474 15.30644224130853,2020-061AE,46300,6852.026,94.078,474.182,473.6,1,2023/1/29
GENERATED VIA SPACETRACK.ORG API,18 SPCS,46300,SPACEBEE-21,PAYLOAD,U,20061AE,2023/1/16 3:28,149248,15.30730815,0.0000496,97.4274,91.437,94.1515,265.9782,0,999,13091,0.003321,0.00099767,0,3748671,0 SPACEBEE-21,1 46300U 20061AE  23016.14478182  .00099767  00000-0  33210-2 0  9998,2 46300  97.4274  91.4370 0000496  94.1515 265.9782 15.30730815130912,2020-061AE,46300,6851.768,94.073,473.972,473.293,1,2023/1/30
GENERATED VIA SPACETRACK.ORG API,18 SPCS,46300,SPACEBEE-21,PAYLOAD,U,20061AE,2023/1/16 11:19,652288,15.30788902,0.0000556,97.4274,91.7646,87.5092,272.6212,0,999,13096,0.0033623,0.0010121,0,3749606,0 SPACEBEE-21,1 46300U 20061AE  23016.47162792  .00101210  00000-0  33623-2 0  9996,2 46300  97.4274  91.7646 0000556  87.5092 272.6212 15.30788902130962,2020-061AE,46300,6851.594,94.069,473.84,473.078,1,2023/1/31
GENERATED VIA SPACETRACK.ORG API,18 SPCS,46300,SPACEBEE-21,PAYLOAD,U,20061AE,2023/1/16 17:35,610176,15.30824794,0.0000549,97.4274,92.0262,81.8435,278.2868,0,999,13100,0.0027252,0.00081897,0,3750489,0 SPACEBEE-21,1 46300U 20061AE  23016.73309734  .00081897  00000-0  27252-2 0  9993,2 46300  97.4274  92.0262 0000549  81.8435 278.2868 15.30824794131005,2020-061AE,46300,6851.487,94.067,473.728,472.976,1,2023/2/1
GENERATED VIA SPACETRACK.ORG API,18 SPCS,46300,SPACEBEE-21,PAYLOAD,U,20061AE,2023/1/16 17:35,610176,15.30824794,0.0000549,97.4274,92.0262,81.8435,278.2868,0,999,13100,0.0027252,0.00081897,0,3750956,0 SPACEBEE-21,1 46300U 20061AE  23016.73309734  .00081897  00000-0  27252-2 0  9993,2 46300  97.4274  92.0262 0000549  81.8435 278.2868 15.30824794131005,2020-061AE,46300,6851.487,94.067,473.728,472.976,1,2023/2/2
GENERATED VIA SPACETRACK.ORG API,18 SPCS,46300,SPACEBEE-21,PAYLOAD,U,20061AE,2023/1/17 10:51,774368,15.3092314,0.0000554,97.4275,92.7462,83.0351,277.0952,0,999,13111,0.0022663,0.00068176,0,3752973,0 SPACEBEE-21,1 46300U 20061AE  23017.45210387  .00068176  00000-0  22663-2 0  9994,2 46300  97.4275  92.7462 0000554  83.0351 277.0952 15.30923140131110,2020-061AE,46300,6851.194,94.061,473.438,472.679,1,2023/2/3
GENERATED VIA SPACETRACK.ORG API,18 SPCS,46300,SPACEBEE-21,PAYLOAD,U,20061AE,2023/1/17 10:51,774368,15.3092314,0.0000554,97.4275,92.7462,83.0351,277.0952,0,999,13111,0.0022663,0.00068176,0,3753023,0 SPACEBEE-21,1 46300U 20061AE  23017.45210387  .00068176  00000-0  22663-2 0  9994,2 46300  97.4275  92.7462 0000554  83.0351 277.0952 15.30923140131110,2020-061AE,46300,6851.194,94.061,473.438,472.679,1,2023/2/4
GENERATED VIA SPACETRACK.ORG API,18 SPCS,46300,SPACEBEE-21,PAYLOAD,U,20061AE,2023/1/17 15:33,508864,15.30952039,0.0000514,97.4274,92.9426,78.0566,282.0732,0,999,13114,0.0023738,0.00071509,0,3753286,0 SPACEBEE-21,1 46300U 20061AE  23017.64818876  .00071509  00000-0  23738-2 0  9990,2 46300  97.4274  92.9426 0000514  78.0566 282.0732 15.30952039131143,2020-061AE,46300,6851.108,94.059,473.325,472.62,1,2023/2/5
GENERATED VIA SPACETRACK.ORG API,18 SPCS,46300,SPACEBEE-21,PAYLOAD,U,20061AE,2023/1/18 10:22,277696,15.31074029,0.0000479,97.4276,93.7279,76.6115,283.518,0,999,13126,0.0032003,0.0009713,0,3753951,0 SPACEBEE-21,1 46300U 20061AE  23018.43249164  .00097130  00000-0  32003-2 0  9999,2 46300  97.4276  93.7279 0000479  76.6115 283.5180 15.31074029131265,2020-061AE,46300,6850.744,94.052,472.937,472.28,1,2023/2/6
GENERATED VIA SPACETRACK.ORG API,18 SPCS,46300,SPACEBEE-21,PAYLOAD,U,20061AE,2023/1/18 10:22,277696,15.31074029,0.0000479,97.4276,93.7279,76.6115,283.518,0,999,13126,0.0032003,0.0009713,0,3753959,0 SPACEBEE-21,1 46300U 20061AE  23018.43249164  .00097130  00000-0  32003-2 0  9999,2 46300  97.4276  93.7279 0000479  76.6115 283.5180 15.31074029131265,2020-061AE,46300,6850.744,94.052,472.937,472.28,1,2023/2/7
GENERATED VIA SPACETRACK.ORG API,18 SPCS,46300,SPACEBEE-21,PAYLOAD,U,20061AE,2023/1/19 3:37,988352,15.31188719,0.0000468,97.4276,94.4474,76.8897,283.2396,0,999,13137,0.0021812,0.00066137,0,3754558,0 SPACEBEE-21,1 46300U 20061AE  23019.15137718  .00066137  00000-0  21812-2 0  9999,2 46300  97.4276  94.4474 0000468  76.8897 283.2396 15.31188719131377,2020-061AE,46300,6850.402,94.045,472.587,471.946,1,2023/2/8
GENERATED VIA SPACETRACK.ORG API,18 SPCS,46300,SPACEBEE-21,PAYLOAD,U,20061AE,2023/1/20 0:01,881824,15.31324428,0.0000557,97.4274,95.2983,70.5139,289.6162,0,999,13150,0.002696,0.00082286,0,3755518,0 SPACEBEE-21,1 46300U 20061AE  23020.00090141  .00082286  00000-0  26960-2 0  9995,2 46300  97.4274  95.2983 0000557  70.5139 289.6162 15.31324428131503,2020-061AE,46300,6849.997,94.036,472.243,471.48,1,2023/2/9
GENERATED VIA SPACETRACK.ORG API,18 SPCS,46300,SPACEBEE-21,PAYLOAD,U,20061AE,2023/1/20 10:59,675552,15.31391404,0.0000605,97.4272,95.7568,68.3294,291.8012,0,999,13157,0.0024194,0.00073907,0,3755973,0 SPACEBEE-21,1 46300U 20061AE  23020.45830643  .00073907  00000-0  24194-2 0  9990,2 46300  97.4272  95.7568 0000605  68.3294 291.8012 15.31391404131570,2020-061AE,46300,6849.797,94.032,472.076,471.248,1,2023/2/10
GENERATED VIA SPACETRACK.ORG API,18 SPCS,46300,SPACEBEE-21,PAYLOAD,U,20061AE,2023/1/20 10:59,675552,15.31391404,0.0000605,97.4272,95.7568,68.3294,291.8012,0,999,13157,0.0024194,0.00073907,0,3756202,0 SPACEBEE-21,1 46300U 20061AE  23020.45830643  .00073907  00000-0  24194-2 0  9990,2 46300  97.4272  95.7568 0000605  68.3294 291.8012 15.31391404131570,2020-061AE,46300,6849.797,94.032,472.076,471.248,1,2023/2/11
GENERATED VIA SPACETRACK.ORG API,18 SPCS,46300,SPACEBEE-21,PAYLOAD,U,20061AE,2023/1/21 4:14,680224,15.31516099,0.0000825,97.4235,96.4719,355.3022,4.8212,0,999,13168,0.0027196,0.00083515,0,3757017,0 SPACEBEE-21,1 46300U 20061AE  23021.17704491  .00083515  00000-0  27196-2 0  9992,2 46300  97.4235  96.4719 0000825 355.3022   4.8212 15.31516099131682,2020-061AE,46300,6849.425,94.024,471.855,470.725,1,2023/2/12
GENERATED VIA SPACETRACK.ORG API,18 SPCS,46300,SPACEBEE-21,PAYLOAD,U,20061AE,2023/1/22 3:46,238368,15.31674573,0.0000479,97.4244,97.455,40.5722,319.5555,0,999,13183,0.002621,0.00080853,0,3758181,0 SPACEBEE-21,1 46300U 20061AE  23022.15705137  .00080853  00000-0  26210-2 0  9997,2 46300  97.4244  97.4550 0000479  40.5722 319.5555 15.31674573131836,2020-061AE,46300,6848.953,94.015,471.146,470.49,1,2023/2/13
GENERATED VIA SPACETRACK.ORG API,18 SPCS,46300,SPACEBEE-21,PAYLOAD,U,20061AE,2023/1/22 16:18,391744,15.31750035,0.0000592,97.4243,97.979,37.4129,322.7154,0,999,13191,0.0023804,0.00073525,0,3758553,0 SPACEBEE-21,1 46300U 20061AE  23022.67968046  .00073525  00000-0  23804-2 0  9998,2 46300  97.4243  97.9790 0000592  37.4129 322.7154 15.31750035131916,2020-061AE,46300,6848.728,94.01,470.998,470.187,1,2023/2/14
GENERATED VIA SPACETRACK.ORG API,18 SPCS,46300,SPACEBEE-21,PAYLOAD,U,20061AE,2023/1/23 4:51,903872,15.31841,0.0000535,97.4251,98.504,51.3037,308.8252,0,999,13199,0.0023472,0.00072696,0,3758804,0 SPACEBEE-21,1 46300U 20061AE  23023.20227898  .00072696  00000-0  23472-2 0  9990,2 46300  97.4251  98.5040 0000535  51.3037 308.8252 15.31841000131995,2020-061AE,46300,6848.457,94.005,470.688,469.955,1,2023/2/15
